#aV2024  8  4  0  0  0.00000000     288 DD+AD WGS84 FIT  NGA
## 2326      0.00000000   300.00000000 60526 0.0000000000000
+   31     2  3  4  5  6  7  8  9 10 11 12 13 14 15 16 17 18
+         19 20 21 22 23 24 25 26 27 28 29 30 31 32  0  0  0
+          0  0  0  0  0  0  0  0  0  0  0  0  0  0  0  0  0
+          0  0  0  0  0  0  0  0  0  0  0  0  0  0  0  0  0
+          0  0  0  0  0  0  0  0  0  0  0  0  0  0  0  0  0
++         2  2  2  2  2  2  2  2  2  2  2  2  2  2  2  2  2
++         2  2  2  2  2  2  2  2  2  2  2  2  2  2  0  0  0
++         0  0  0  0  0  0  0  0  0  0  0  0  0  0  0  0  0
++         0  0  0  0  0  0  0  0  0  0  0  0  0  0  0  0  0
++         0  0  0  0  0  0  0  0  0  0  0  0  0  0  0  0  0
%c cc cc ccc ccc cccc cccc cccc cccc ccccc ccccc ccccc ccccc
%c cc cc ccc ccc cccc cccc cccc cccc ccccc ccccc ccccc ccccc
%f  0.0000000  0.000000000  0.00000000000  0.000000000000000
%f  0.0000000  0.000000000  0.00000000000  0.000000000000000
%i    0    0    0    0      0      0      0      0         0
%i    0    0    0    0      0      0      0      0         0
/*      NGA, ST. LOUIS,MO.                                  
/*   EPHEMERIS COMPUTED FROM 2 DAYS OF DATA                 
/*   EPOCHA v9 SMOOTHER                                     
/*   G2296 IERS2010 SATIGS SATAPC                           
*  2024  8  4  8 10  0.00000000
P  2  13874.267265 -14605.661529  17618.559505   -385.835142                    
V  2   -804.946613  21601.297797  19365.543334      0.075444                    
P  3  21661.048784 -12969.739056  -8221.205759    486.285251                    
V  3  10309.931978  -1378.225288  30052.195986      0.152450                    
P  4  12792.151556  -8518.900250 -21659.509486    417.359667                    
V  4  19814.997346  19079.496893   4059.449426      0.075701                    
P  5 -25118.502759   4032.240974  -7952.631626   -182.040720                    
V  5   8332.243701  -5633.123792 -29791.900883     -0.012932                    
P  6  -6293.723546 -20246.228362 -15867.509207    120.183655                    
V  6   5646.130111 -19495.639506  22648.408156     -0.238366                    
P  7   5563.611000 -25686.445376   -585.316147    -57.465479                    
V  7   3231.451778   2051.349653 -31814.781090      0.065226                    
P  8  20588.710869   1358.652529  16845.038378    302.112704                    
V  8  15525.817186  14916.666211 -19623.049138      0.151180                    
P  9   1488.359327 -17232.204368 -20228.895009    300.196980                    
V  9  20265.125673  15534.268060 -11847.092863      0.153903                    
P 10   7796.953117  12869.165068  22121.895708    -84.205634                    
V 10 -26024.046692   8844.066557   3746.514554     -0.106023                    
P 11 -13719.316614  -6850.653159 -21666.035549   -716.182822                    
V 11   6950.961476 -26658.429841   3961.594046     -0.059922                    
P 12 -23794.142328  10398.343666  -5738.250399   -527.658912                    
V 12  -7399.409521   -846.020848  30683.099575     -0.029963                    
P 13 -20673.361262 -11121.120269  12433.954230    668.748866                    
V 13  -8967.904231 -13422.665030 -26218.659243      0.022701                    
P 14  -3450.685736 -15224.003901  21524.090719    464.496235                    
V 14  26134.662275  -7891.079797  -1613.964356      0.087947                    
P 15 -20483.203711   1309.478324  16442.777407    188.696770                    
V 15 -17204.845887 -13668.997363 -19557.063861      0.043021                    
P 16  24551.487538   1817.297983 -10859.507757   -218.034889                    
V 16 -12287.832812   5087.516376 -27352.207944      0.104634                    
P 17 -10968.851507 -21617.684601  11077.598132    662.932779                    
V 17  11159.331917   7898.654723  27669.479800     -0.088486                    
P 18  -5931.077079  25764.762357   -417.849442   -643.136943                    
V 18  -2390.469692  -1087.937581 -32193.205524     -0.034413                    
P 19 -17124.018857 -20497.843865   1903.517406    519.858508                    
V 19   3410.191871    369.158370  31507.491732      0.052333                    
P 20 -20540.054818  -2066.046567 -16560.964637    372.046312                    
V 20  17596.390882 -12055.577282 -20387.870991     -0.004007                    
P 21  15146.172226  -8159.224615  20359.433570    104.942644                    
V 21  -1175.813735  25245.615273  12256.321410     -0.021656                    
P 22 -11446.820720 -12300.094229  20920.176336    -47.412281                    
V 22  24760.391497  -6931.181740   9956.099215     -0.042930                    
P 23  -6102.161631  16468.796162  19880.667401    289.426469                    
V 23 -24011.303405   7738.800781 -14002.268912      0.087495                    
P 24 -14379.455991  12889.445289  17626.833973   -485.423423                    
V 24    -21.227519 -23605.206154  17243.973220     -0.009851                    
P 25 -15264.162197  16416.342524 -14381.606115    499.069769                    
V 25 -17604.803735   3704.214543  23721.643454      0.002670                    
P 26  16297.686988   8678.735096 -19367.993105    107.282925                    
V 26 -21719.251908  10908.232580 -13122.342325     -0.073756                    
P 27  22479.998503  11549.507195   8541.925389    -32.489434                    
V 27   6909.280180   9024.690144 -28970.129908     -0.006334                    
P 28   6102.847258  21878.494862 -13776.473671   -358.855077                    
V 28  -5011.824011  16881.869533  24608.951652     -0.152498                    
P 29  -6118.831440  14625.091408 -21334.558387   -585.998664                    
V 29 -19315.356114 -18841.310277  -7516.771735      0.021067                    
P 30  -1976.710048 -24751.496664   9198.176072   -346.077789                    
V 30   5649.469219 -10698.463263 -28301.161180      0.067157                    
P 31  12404.791113  11494.541675 -20611.468482   -226.193685                    
V 31  -6706.585282  24930.512682  10357.357897      0.003550                    
P 32  13862.377885  20750.996596   9594.118825   -608.173607                    
V 32 -10433.422442  -5987.848210  28469.810611      0.025197                    
EOF
